NORAD_CAT_ID,OBJECT_NAME,OBJECT_TYPE,EPOCH,MEAN_MOTION,ECCENTRICITY,INCLINATION,RA_OF_ASC_NODE,ARG_OF_PERICENTER,MEAN_ANOMALY,BSTAR,MEAN_MOTION_DOT,MEAN_MOTION_DDOT,TLE_LINE0,TLE_LINE1,TLE_LINE2,SEMIMAJOR_AXIS,PERIOD,APOGEE,PERIGEE,DECAYED
52851.0,STARLINK-3809,PAYLOAD,2022-08-28 22:00:00,15.27555782,0.0001394,53.2174,50.2539,49.4858,286.6234,-0.04243,-0.01062351,0.0,0 STARLINK-3809,1 52851U 22062X   22240.91667824 -.01062351  00000-0 -42430-1 0  9990,2 52851  53.2174  50.2539 0001394  49.4858 286.6234 15.27555782 11846,6861.259,94.268,484.08,482.167,0.0
52851.0,STARLINK-3809,PAYLOAD,2022-08-29 14:00:01,15.26039486,0.000149,53.2176,47.1697,46.3385,356.1056,-0.04466,-0.01067211,0.0,0 STARLINK-3809,1 52851U 22062X   22241.58334491 -.01067211  00000-0 -44660-1 0  9992,2 52851  53.2176  47.1697 0001490  46.3385 356.1056 15.26039486  1308,6865.803000000001,94.362,488.691,486.645,0.0
52851.0,STARLINK-3809,PAYLOAD,2022-08-29 22:00:00,15.25322175,0.0001582,53.2164,45.6341,39.6875,34.5311,-0.048199,-0.0112185,0.0,0 STARLINK-3809,1 52851U 22062X   22241.91667824 -.01121850  00000-0 -48199-1 0  9999,2 52851  53.2164  45.6341 0001582  39.6875  34.5311 15.25322175  1305,6867.955,94.406,490.907,488.734,0.0
52851.0,STARLINK-3809,PAYLOAD,2022-08-30 14:00:01,15.23803126,0.0001531999999999,53.2168,42.56,53.9819,81.0953,-0.050356,-0.01134588,0.0,0 STARLINK-3809,1 52851U 22062X   22242.58334491 -.01134588  00000-0 -50356-1 0  9994,2 52851  53.2168  42.5600 0001532  53.9819  81.0953 15.23803126  1302,6872.519,94.5,495.437,493.331,0.0
52851.0,STARLINK-3809,PAYLOAD,2022-08-30 22:00:00,15.2299641,0.0001575999999999,53.2173,41.0263,54.2276,109.9357,-0.0484949999999999,-0.01058238,0.0,0 STARLINK-3809,1 52851U 22062X   22242.91667824 -.01058238  00000-0 -48495-1 0  9998,2 52851  53.2173  41.0263 0001576  54.2276 109.9357 15.22996410  1302,6874.945,94.55,497.894,495.727,0.0
52851.0,STARLINK-3809,PAYLOAD,2022-08-31 14:00:01,15.21479564,0.0001723,53.2176,37.9638,47.7794,171.7668,-0.050916,-0.01061835,0.0,0 STARLINK-3809,1 52851U 22062X   22243.58334491 -.01061835  00000-0 -50916-1 0  9991,2 52851  53.2176  37.9638 0001723  47.7794 171.7668 15.21479564  1308,6879.514,94.645,502.564,500.194,0.0
52851.0,STARLINK-3809,PAYLOAD,2022-08-31 22:00:00,15.20601694,0.000149,53.2162,36.4387,50.033,195.9008,-0.0443,-0.0091172,0.0,0 STARLINK-3809,1 52851U 22062X   22243.91667824 -.00911720  00000-0 -44300-1 0  9993,2 52851  53.2162  36.4387 0001490  50.0330 195.9008 15.20601694  1308,6882.1619999999975,94.699,505.052,503.001,0.0
52851.0,STARLINK-3809,PAYLOAD,2022-09-01 06:00:00,15.1977857,0.000159,53.217,34.9094,49.2647,222.1095,-0.040451,-0.00809854,0.0,0 STARLINK-3809,1 52851U 22062X   22244.25001157 -.00809854  00000-0 -40451-1 0  9999,2 52851  53.2170  34.9094 0001590  49.2647 222.1095 15.19778570 12359,6884.646,94.751,507.606,505.417,0.0
52851.0,STARLINK-3809,PAYLOAD,2022-09-01 14:00:01,15.19201228,0.0001631999999999,53.2175,33.3848,45.025,250.8137,-0.054428,-0.01061602,0.0,0 STARLINK-3809,1 52851U 22062X   22244.58335648 -.01061602  00000-0 -54428-1 0  9991,2 52851  53.2175  33.3848 0001632  45.0250 250.8137 15.19201228  1304,6886.39,94.787,509.379,507.132,0.0
52851.0,STARLINK-3809,PAYLOAD,2022-09-01 22:00:00,15.18442308,0.0001313,53.2172,31.8628,61.5681,257.7911,-0.055664,-0.01075335,0.0,0 STARLINK-3809,1 52851U 22062X   22244.91667824 -.01075335  00000-0 -55664-1 0  9993,2 52851  53.2172  31.8628 0001313  61.5681 257.7911 15.18442308  1308,6888.685,94.834,511.454,509.645,0.0
52851.0,STARLINK-3809,PAYLOAD,2022-09-02 14:00:01,15.16923338,0.000168,53.2176,28.8219,39.1282,324.6627,-0.058196,-0.01075976,0.0,0 STARLINK-3809,1 52851U 22062X   22245.58334491 -.01075976  00000-0 -58196-1 0  9992,2 52851  53.2176  28.8219 0001680  39.1282 324.6627 15.16923338 12551,6893.283,94.929,516.306,513.99,0.0
52851.0,STARLINK-3809,PAYLOAD,2022-09-02 22:00:01,15.16163774,0.0001367,53.2172,27.3049,53.7258,330.9743,-0.059438,-0.01075229,0.0,0 STARLINK-3809,1 52851U 22062X   22245.91668981 -.01075229  00000-0 -59438-1 0  9994,2 52851  53.2172  27.3049 0001367  53.7258 330.9743 15.16163774  1309,6895.585,94.977,518.3919999999998,516.507,0.0
52851.0,STARLINK-3809,PAYLOAD,2022-09-03 14:00:01,15.14662612,0.0001485,53.2166,24.2765,54.6885,8.8929,-0.0635179999999999,-0.01098976,0.0,0 STARLINK-3809,1 52851U 22062X   22246.58334491 -.01098976  00000-0 -63518-1 0  9992,2 52851  53.2166  24.2765 0001485  54.6885   8.8929 15.14662612 12706,6900.14,95.071,523.03,520.98,0.0
52851.0,STARLINK-3809,PAYLOAD,2022-09-03 22:00:00,15.13884291,0.0001492,53.2171,22.7631,51.7781,29.9229,-0.06332,-0.01073612,0.0,0 STARLINK-3809,1 52851U 22062X   22246.91667824 -.01073612  00000-0 -63320-1 0  9999,2 52851  53.2171  22.7631 0001492  51.7781  29.9229 15.13884291  1307,6902.505,95.12,525.4,523.34,0.0
52851.0,STARLINK-3809,PAYLOAD,2022-09-04 14:00:01,15.12377975,0.0001595,53.2164,19.7453,57.2991,57.9367,-0.067249,-0.01091439,0.0,0 STARLINK-3809,1 52851U 22062X   22247.58335648 -.01091439  00000-0 -67249-1 0  9990,2 52851  53.2164  19.7453 0001595  57.2991  57.9367 15.12377975 12856,6907.087,95.214,530.054,527.851,0.0
52851.0,STARLINK-3809,PAYLOAD,2022-09-04 20:00:01,15.11794239,0.0001385999999999,53.2173,18.6141,55.4476,341.3462,-0.067004,-0.01071353,0.0,0 STARLINK-3809,1 52851U 22062X   22247.83334491 -.01071353  00000-0 -67004-1 0  9995,2 52851  53.2173  18.6141 0001386  55.4476 341.3462 15.11794239  1303,6908.865,95.251,531.688,529.773,0.0
52851.0,STARLINK-3809,PAYLOAD,2022-09-05 14:00:01,15.10112126,0.0001639,53.2164,15.2307,57.1338,101.4047,-0.072769,-0.01107396,0.0,0 STARLINK-3809,1 52851U 22062X   22248.58334491 -.01107396  00000-0 -72769-1 0  9999,2 52851  53.2164  15.2307 0001639  57.1338 101.4047 15.10112126  1309,6913.995,95.357,536.993,534.727,0.0
52851.0,STARLINK-3809,PAYLOAD,2022-09-05 20:00:01,15.09389326,0.0001298,53.2172,14.1043,51.7532,26.3783,-0.040575,-0.00616584,0.0,0 STARLINK-3809,1 52851U 22062X   22248.83334491 -.00616584  00000-0 -40575-1 0  9990,2 52851  53.2172  14.1043 0001298  51.7532  26.3783 15.09389326 13042,6916.2019999999975,95.403,538.965,537.169,0.0
52851.0,STARLINK-3809,PAYLOAD,2022-09-05 22:00:00,15.09221228,0.0001329,53.2171,13.7291,54.8874,116.3084,-0.031813,-0.00483536,0.0,0 STARLINK-3809,1 52851U 22062X   22248.91667824 -.00483536  00000-0 -31813-1 0  9992,2 52851  53.2171  13.7291 0001329  54.8874 116.3084 15.09221228  1305,6916.715,95.413,539.5,537.661,0.0
52851.0,STARLINK-3809,PAYLOAD,2022-09-06 06:00:00,15.08837307,0.0001643,53.2172,12.2301,47.4628,135.5775,-0.00013401,-2.42e-05,0.0,0 STARLINK-3809,1 52851U 22062X   22249.25001157 -.00002420  00000-0 -13401-3 0  9995,2 52851  53.2172  12.2301 0001643  47.4628 135.5775 15.08837307 13118,6917.889,95.438,540.89,538.617,0.0
52851.0,STARLINK-3809,PAYLOAD,2022-09-06 12:00:00,15.08879658,0.000161,53.2118,11.1177,41.6879,60.0826,-0.0013674,-0.00022008,0.0,0 STARLINK-3809,1 52851U 22062X   22249.50001157 -.00022008  00000-0 -13674-2 0  9998,2 52851  53.2118  11.1177 0001610  41.6879  60.0826 15.08879658 13142,6917.759,95.435,540.738,538.51,0.0
52851.0,STARLINK-3809,PAYLOAD,2022-09-06 14:00:01,15.08863621,0.0001705,53.2117,10.744000000000002,40.1608,154.5237,0.00043128,6.587e-05,0.0,0 STARLINK-3809,1 52851U 22062X   22249.58334491  .00006587  00000-0  43128-3 0  9996,2 52851  53.2117  10.7440 0001705  40.1608 154.5237 15.08863621  1301,6917.808000000001,95.436,540.8530000000002,538.494,0.0
52851.0,STARLINK-3809,PAYLOAD,2022-09-06 22:00:00,15.08893007,0.0001791,53.2118,9.2474,41.6471,164.6219,-0.0057168,-0.00090265,0.0,0 STARLINK-3809,1 52851U 22062X   22249.91667824 -.00090265  00000-0 -57168-2 0  9998,2 52851  53.2118   9.2474 0001791  41.6471 164.6219 15.08893007  1304,6917.718000000003,95.434,540.822,538.344,0.0
52851.0,STARLINK-3809,PAYLOAD,2022-09-07 04:00:00,15.08827993,0.0001689,53.2121,8.1236,47.4705,77.5296,-0.0050644,-0.00079969,0.0,0 STARLINK-3809,1 52851U 22062X   22250.16667824 -.00079969  00000-0 -50644-2 0  9997,2 52851  53.2121   8.1236 0001689  47.4705  77.5296 15.08827993 13257,6917.917,95.438,540.951,538.614,0.0
52851.0,STARLINK-3809,PAYLOAD,2022-09-07 14:00:01,15.08746356,0.0001807,53.2123,6.2544,43.9197,185.51,0.0049403,0.00079017,0.0,0 STARLINK-3809,1 52851U 22062X   22250.58334491  .00079017  00000-0  49403-2 0  9997,2 52851  53.2123   6.2544 0001807  43.9197 185.5100 15.08746356 13312,6918.167,95.443,541.2819999999998,538.7819999999998,0.0
52851.0,STARLINK-3809,PAYLOAD,2022-09-07 22:00:00,15.08843589,0.0001715,53.2139,4.7548,38.5105,202.4454,0.0013499,0.00021263,0.0,0 STARLINK-3809,1 52851U 22062X   22250.91667824  .00021263  00000-0  13499-2 0  9999,2 52851  53.2139   4.7548 0001715  38.5105 202.4454 15.08843589  1306,6917.869000000002,95.437,540.9209999999998,538.548,0.0
52851.0,STARLINK-3809,PAYLOAD,2022-09-08 14:00:01,15.08851015,0.0001778,53.2126,1.7649,40.0748,224.1055,-0.0017237,-0.00027625,0.0,0 STARLINK-3809,1 52851U 22062X   22251.58334491 -.00027625  00000-0 -17237-2 0  9998,2 52851  53.2126   1.7649 0001778  40.0748 224.1055 15.08851015  1302,6917.847,95.437,540.942,538.482,0.0
52851.0,STARLINK-3809,PAYLOAD,2022-09-08 22:00:00,15.08864526,0.0001781999999999,53.2124,0.268,39.9054,235.8742,-0.0014395999999999,-0.00023142,0.0,0 STARLINK-3809,1 52851U 22062X   22251.91667824 -.00023142  00000-0 -14396-2 0  9997,2 52851  53.2124   0.2680 0001782  39.9054 235.8742 15.08864526  1304,6917.805,95.436,540.903,538.438,0.0
52851.0,STARLINK-3809,PAYLOAD,2022-09-09 14:00:01,15.08849855,0.0001846,53.2126,357.2756,43.1652,255.8299,-0.0015809,-0.00025367,0.0,0 STARLINK-3809,1 52851U 22062X   22252.58334491 -.00025367  00000-0 -15809-2 0  9993,2 52851  53.2126 357.2756 0001846  43.1652 255.8299 15.08849855  1304,6917.85,95.437,540.992,538.438,0.0
